{
  "norad_id": 50174,
  "name": "STARLINK-3292",
  "history": [
    {
      "epoch": "2026-03-28T11:22:40.474848Z",
      "apogee_km": 540.7101633565117,
      "perigee_km": 538.8330580340862,
      "latitude_deg": 4.367247261835481e-06,
      "longitude_deg": 163.84344814034685,
      "height_km": 540.5838507680214,
      "semi_major_axis_km": 6917.908610695299,
      "eccentricity": 0.00013567,
      "inclination_deg": 53.2165,
      "raan_deg": 160.4061,
      "arg_perigee_deg": 84.9032,
      "mean_anomaly_deg": 275.2115,
      "mean_motion_rev_day": 15.08830767
    },
    {
      "epoch": "2026-03-29T08:02:40.576704Z",
      "apogee_km": 540.5727824509977,
      "perigee_km": 539.0137576853358,
      "latitude_deg": -6.548468565748454e-07,
      "longitude_deg": -150.87133103143205,
      "height_km": 540.5833116541014,
      "semi_major_axis_km": 6917.9302700681665,
      "eccentricity": 0.00011268,
      "inclination_deg": 53.2163,
      "raan_deg": 156.5405,
      "arg_perigee_deg": 82.1937,
      "mean_anomaly_deg": 277.9183,
      "mean_motion_rev_day": 15.08823681
    },
    {
      "epoch": "2026-03-30T12:39:37.496448Z",
      "apogee_km": 540.5529815853306,
      "perigee_km": 538.9691979966547,
      "latitude_deg": -1.2160966697137092e-05,
      "longitude_deg": 133.36288616025436,
      "height_km": 540.5160771247721,
      "semi_major_axis_km": 6917.898089790992,
      "eccentricity": 0.00011447,
      "inclination_deg": 53.2156,
      "raan_deg": 151.1871,
      "arg_perigee_deg": 79.7546,
      "mean_anomaly_deg": 280.3575,
      "mean_motion_rev_day": 15.08834209
    },
    {
      "epoch": "2026-03-30T20:36:33.381216Z",
      "apogee_km": 540.5616715380429,
      "perigee_km": 538.9590714329643,
      "latitude_deg": 2.355799618740913e-05,
      "longitude_deg": 12.31691195052861,
      "height_km": 540.514539699646,
      "semi_major_axis_km": 6917.897371485504,
      "eccentricity": 0.00011583,
      "inclination_deg": 53.2153,
      "raan_deg": 149.7004,
      "arg_perigee_deg": 79.8207,
      "mean_anomaly_deg": 280.2916,
      "mean_motion_rev_day": 15.08834444
    },
    {
      "epoch": "2026-03-31T14:05:48.088896Z",
      "apogee_km": 540.6123359565254,
      "perigee_km": 538.8883984246222,
      "latitude_deg": -4.206349377442693e-06,
      "longitude_deg": 106.01672752288522,
      "height_km": 540.5095545643172,
      "semi_major_axis_km": 6917.887367190574,
      "eccentricity": 0.0001246,
      "inclination_deg": 53.2157,
      "raan_deg": 146.4297,
      "arg_perigee_deg": 80.8871,
      "mean_anomaly_deg": 279.2262,
      "mean_motion_rev_day": 15.08837717
    },
    {
      "epoch": "2026-04-01T20:18:07.618464Z",
      "apogee_km": 540.6258357047545,
      "perigee_km": 538.8645428993586,
      "latitude_deg": -2.2176687929199983e-05,
      "longitude_deg": 6.045049862107841,
      "height_km": 540.5556185030096,
      "semi_major_axis_km": 6917.882189302057,
      "eccentricity": 0.0001273,
      "inclination_deg": 53.2155,
      "raan_deg": 140.7799,
      "arg_perigee_deg": 84.4476,
      "mean_anomaly_deg": 275.6661,
      "mean_motion_rev_day": 15.08839411
    },
    {
      "epoch": "2026-04-02T20:08:52.138176Z",
      "apogee_km": 540.4931531088687,
      "perigee_km": 538.814205311025,
      "latitude_deg": 9.689766758643982e-06,
      "longitude_deg": 2.919467435607803,
      "height_km": 540.4953263571089,
      "semi_major_axis_km": 6917.790679209947,
      "eccentricity": 0.00012135,
      "inclination_deg": 53.216,
      "raan_deg": 136.3191,
      "arg_perigee_deg": 86.3032,
      "mean_anomaly_deg": 273.8099,
      "mean_motion_rev_day": 15.0886935
    },
    {
      "epoch": "2026-04-03T12:02:44.907360Z",
      "apogee_km": 540.0713297711454,
      "perigee_km": 539.3861843465675,
      "latitude_deg": -1.2112511245049618e-05,
      "longitude_deg": 120.82227239038784,
      "height_km": 540.730704450122,
      "semi_major_axis_km": 6917.865757058857,
      "eccentricity": 4.952e-05,
      "inclination_deg": 53.2163,
      "raan_deg": 133.3447,
      "arg_perigee_deg": 107.8802,
      "mean_anomaly_deg": 252.2244,
      "mean_motion_rev_day": 15.08844787
    },
    {
      "epoch": "2026-04-04T08:42:47.788704Z",
      "apogee_km": 540.8940476759808,
      "perigee_km": 538.6834936752193,
      "latitude_deg": 2.227671817680882e-05,
      "longitude_deg": 166.09500926707042,
      "height_km": 540.764574916126,
      "semi_major_axis_km": 6917.9257706756,
      "eccentricity": 0.00015977,
      "inclination_deg": 53.216,
      "raan_deg": 129.4782,
      "arg_perigee_deg": 94.1811,
      "mean_anomaly_deg": 265.9364,
      "mean_motion_rev_day": 15.08825153
    }
  ]
}